OBJECT_NAME,OBJECT_ID,EPOCH,MEAN_MOTION,ECCENTRICITY,INCLINATION,RA_OF_ASC_NODE,ARG_OF_PERICENTER,MEAN_ANOMALY,EPHEMERIS_TYPE,CLASSIFICATION_TYPE,NORAD_CAT_ID,ELEMENT_SET_NO,REV_AT_EPOCH,BSTAR,MEAN_MOTION_DOT,MEAN_MOTION_DDOT
STARLINK-37518,2026-117X,2026-06-09T06:00:02.999808,15.93464809,.00009052,53.1547,282.8250,68.3759,37.5053,0,U,69259,999,289,-.51781359E-2,-.1886908E-1,.9906823E-3
STARLINK-37478,2026-117Y,2026-06-09T06:00:02.999808,15.93480574,.00008852,53.1548,282.8327,69.3237,32.8921,0,U,69260,999,289,-.53268672E-2,-.1941966E-1,.10453307E-2
STARLINK-37506,2026-117Z,2026-06-09T06:00:02.999808,15.93686788,.00008429,53.1545,282.8226,69.6949,37.2354,0,U,69261,999,289,-.52906756E-2,-.1949789E-1,.10554283E-2
STARLINK-37503,2026-117AA,2026-06-09T06:00:02.999808,15.93726143,.00010019,53.1548,282.8163,51.9384,57.7447,0,U,69262,999,289,-.55068855E-2,-.2032617E-1,.11412978E-2
STARLINK-37502,2026-117AB,2026-06-09T06:00:02.999808,15.93430833,.00008437,53.1547,282.8094,68.1239,44.6541,0,U,69263,999,289,-.52945986E-2,-.1925359E-1,.10282125E-2
STARLINK-37486,2026-117AC,2026-06-09T06:00:02.999808,15.93187389,.0000939,53.1545,282.7976,71.2451,47.3772,0,U,69264,999,289,-.53500085E-2,-.1920804E-1,.1021152E-2
STARLINK-37435,2026-117AD,2026-06-09T06:00:02.999808,15.92005571,.00010379,53.1546,282.7798,60.4777,66.2512,0,U,69265,999,289,-.55752775E-2,-.1882408E-1,.97192568E-3
STARLINK-37464,2026-117AE,2026-06-09T06:00:02.999808,15.91821851,.00010115,53.1546,282.7564,61.8796,76.0030,0,U,69266,999,289,-.63747548E-2,-.212849E-1,.1220336E-2
KUIPER-00282,2026-118A,2026-06-09T05:05:36.922560,15.34923276,.00113315,51.8587,91.9818,149.1389,211.0265,0,U,69267,999,275,-.27656874E-2,-.94532E-3,0
KUIPER-00383,2026-118B,2026-06-09T06:35:27.978432,15.35029739,.00104761,51.8591,91.6505,153.5170,206.6353,0,U,69268,999,276,-.18174736E-2,-.62702E-3,0
KUIPER-00527,2026-118C,2026-06-09T04:58:13.605888,15.35593985,.00097653,51.8619,91.9501,148.3127,211.8449,0,U,69269,999,275,-.70501044E-4,-.2869E-4,0
KUIPER-00562,2026-118D,2026-06-09T06:09:42.104448,15.38468294,.00019527,51.8718,91.5257,94.1036,266.0174,0,U,69270,999,276,.47383642E-3,.17917E-3,0
KUIPER-00570,2026-118E,2026-06-09T05:01:45.352416,15.34487449,.00133742,51.8573,91.9623,151.4270,208.7450,0,U,69271,999,275,-.20825517E-1,-.65956E-2,0
KUIPER-00572,2026-118F,2026-06-09T06:25:22.770624,15.36826944,.0007356,51.8671,91.6063,142.5995,217.5505,0,U,69272,999,276,.49238772E-3,.17664E-3,0
KUIPER-00581,2026-118G,2026-06-09T04:54:47.684448,15.36497473,.00088766,51.8652,91.9350,146.6051,213.5497,0,U,69273,999,284,.32700072E-3,.11468E-3,0
KUIPER-00584,2026-118H,2026-06-09T05:04:07.242816,15.35303826,.00110639,51.8603,91.9758,159.5296,200.6136,0,U,69274,999,275,.38789414E-3,.13163E-3,0
KUIPER-00587,2026-118J,2026-06-09T04:54:01.846656,15.36473660,.00083116,51.8626,91.9314,148.0909,212.0582,0,U,69275,999,275,.34595534E-3,.12145E-3,0
KUIPER-00590,2026-118K,2026-06-09T06:16:53.240448,15.37713226,.00043292,51.8685,91.5672,129.7080,230.4289,0,U,69276,999,276,.481557E-3,.17769E-3,0
KUIPER-00592,2026-118L,2026-06-09T06:14:52.475712,15.37935470,.00037189,51.8705,91.5560,107.0816,253.0578,0,U,69277,999,276,.62610857E-3,.23407E-3,0
KUIPER-00593,2026-118M,2026-06-09T04:41:41.554176,15.37826490,.00040535,51.8711,91.8715,124.1331,236.0041,0,U,69278,999,281,.31595138E-3,.11556E-3,0
KUIPER-00594,2026-118N,2026-06-09T06:08:07.600128,15.38445468,.00011128,51.8716,91.5231,64.6211,295.4891,0,U,69279,999,276,.44238081E-3,.16685E-3,0
KUIPER-00595,2026-118P,2026-06-09T06:10:30.440064,15.38332400,.00019856,51.8710,91.5363,106.3273,253.7932,0,U,69280,999,279,.49980185E-3,.18838E-3,0
KUIPER-00596,2026-118Q,2026-06-09T05:02:37.347936,15.35583216,.00119557,51.8551,91.9665,156.0635,204.0909,0,U,69281,999,275,.12676826E-3,.4074E-4,0
KUIPER-00597,2026-118R,2026-06-09T06:23:14.210880,15.36893102,.00071496,51.8649,91.5974,140.1615,219.9897,0,U,69282,999,276,.51527558E-3,.18545E-3,0
KUIPER-00599,2026-118S,2026-06-09T04:47:57.547104,15.37189377,.00063075,51.8689,91.9031,134.3241,225.8264,0,U,69283,999,275,.33031739E-3,.1185E-3,0
KUIPER-00600,2026-118T,2026-06-09T04:53:24.877824,15.36591532,.00089481,51.8639,91.9287,142.6917,217.4693,0,U,69284,999,275,.37009623E-3,.13074E-3,0
KUIPER-00601,2026-118U,2026-06-09T06:18:43.870464,15.37523792,.0004818,51.8703,91.5740,127.1239,233.0189,0,U,69285,999,276,.4749168E-3,.17409E-3,0
KUIPER-00602,2026-118V,2026-06-09T06:13:59.518560,15.37969941,.0003233,51.8697,91.5530,117.7471,242.3844,0,U,69286,999,276,.51143582E-3,.19058E-3,0
KUIPER-00603,2026-118W,2026-06-09T06:19:49.893024,15.37381093,.0005596,51.8667,91.5824,131.2399,228.9071,0,U,69287,999,276,.53537297E-3,.19591E-3,0
KUIPER-00605,2026-118X,2026-06-09T06:24:27.194688,15.36924550,.00076676,51.8661,91.6026,136.6970,223.4620,0,U,69288,999,276,.49618887E-3,.17862E-3,0
