STARLINK-37518          
1 69259U 26117X   26160.25003472 -.01886908  99068-3 -51781-2 0  9997
2 69259  53.1547 282.8250 0000905  68.3759  37.5053 15.93464809  2898
STARLINK-37478          
1 69260U 26117Y   26160.25003472 -.01941966  10453-2 -53269-2 0  9998
2 69260  53.1548 282.8327 0000885  69.3237  32.8921 15.93480574  2894
STARLINK-37506          
1 69261U 26117Z   26160.25003472 -.01949789  10554-2 -52907-2 0  9990
2 69261  53.1545 282.8226 0000842  69.6949  37.2354 15.93686788  2890
STARLINK-37503          
1 69262U 26117AA  26160.25003472 -.02032617  11413-2 -55069-2 0  9992
2 69262  53.1548 282.8163 0001001  51.9384  57.7447 15.93726143  2899
STARLINK-37502          
1 69263U 26117AB  26160.25003472 -.01925359  10282-2 -52946-2 0  9990
2 69263  53.1547 282.8094 0000843  68.1239  44.6541 15.93430833  2892
STARLINK-37486          
1 69264U 26117AC  26160.25003472 -.01920804  10212-2 -53500-2 0  9991
2 69264  53.1545 282.7976 0000939  71.2451  47.3772 15.93187389  2897
STARLINK-37435          
1 69265U 26117AD  26160.25003472 -.01882408  97193-3 -55753-2 0  9995
2 69265  53.1546 282.7798 0001037  60.4777  66.2512 15.92005571  2895
STARLINK-37464          
1 69266U 26117AE  26160.25003472 -.02128490  12203-2 -63748-2 0  9992
2 69266  53.1546 282.7564 0001011  61.8796  76.0030 15.91821851  2895
KUIPER-00282            
1 69267U 26118A   26160.21223290 -.00094532  00000+0 -27657-2 0  9997
2 69267  51.8587  91.9818 0011331 149.1389 211.0265 15.34923276  2759
KUIPER-00383            
1 69268U 26118B   26160.27462938 -.00062702  00000+0 -18175-2 0  9997
2 69268  51.8591  91.6505 0010476 153.5170 206.6353 15.35029739  2762
KUIPER-00527            
1 69269U 26118C   26160.20710192 -.00002869  00000+0 -70501-4 0  9990
2 69269  51.8619  91.9501 0009765 148.3127 211.8449 15.35593985  2758
KUIPER-00562            
1 69270U 26118D   26160.25673732  .00017917  00000+0  47384-3 0  9995
2 69270  51.8718  91.5257 0001952  94.1036 266.0174 15.38468294  2766
KUIPER-00570            
1 69271U 26118E   26160.20955269 -.00659560  00000+0 -20826-1 0  9997
2 69271  51.8573  91.9623 0013374 151.4270 208.7450 15.34487449  2753
KUIPER-00572            
1 69272U 26118F   26160.26762466  .00017664  00000+0  49239-3 0  9991
2 69272  51.8671  91.6063 0007356 142.5995 217.5505 15.36826944  2765
KUIPER-00581            
1 69273U 26118G   26160.20471857  .00011468  00000+0  32700-3 0  9998
2 69273  51.8652  91.9350 0008876 146.6051 213.5497 15.36497473  2849
KUIPER-00584            
1 69274U 26118H   26160.21119494  .00013163  00000+0  38789-3 0  9993
2 69274  51.8603  91.9758 0011063 159.5296 200.6136 15.35303826  2758
KUIPER-00587            
1 69275U 26118J   26160.20418804  .00012145  00000+0  34596-3 0  9991
2 69275  51.8626  91.9314 0008311 148.0909 212.0582 15.36473660  2755
KUIPER-00590            
1 69276U 26118K   26160.26172732  .00017769  00000+0  48156-3 0  9999
2 69276  51.8685  91.5672 0004329 129.7080 230.4289 15.37713226  2760
KUIPER-00592            
1 69277U 26118L   26160.26032958  .00023407  00000+0  62611-3 0  9993
2 69277  51.8705  91.5560 0003718 107.0816 253.0578 15.37935470  2766
KUIPER-00593            
1 69278U 26118M   26160.19561984  .00011556  00000+0  31595-3 0  9991
2 69278  51.8711  91.8715 0004053 124.1331 236.0041 15.37826490  2817
KUIPER-00594            
1 69279U 26118N   26160.25564352  .00016685  00000+0  44238-3 0  9997
2 69279  51.8716  91.5231 0001112  64.6211 295.4891 15.38445468  2760
KUIPER-00595            
1 69280U 26118P   26160.25729676  .00018838  00000+0  49980-3 0  9992
2 69280  51.8710  91.5363 0001985 106.3273 253.7932 15.38332400  2799
KUIPER-00596            
1 69281U 26118Q   26160.21015449  .00004074  00000+0  12677-3 0  9995
2 69281  51.8551  91.9665 0011955 156.0635 204.0909 15.35583216  2753
KUIPER-00597            
1 69282U 26118R   26160.26613670  .00018545  00000+0  51528-3 0  9997
2 69282  51.8649  91.5974 0007149 140.1615 219.9897 15.36893102  2764
KUIPER-00599            
1 69283U 26118S   26160.19997161  .00011850  00000+0  33032-3 0  9992
2 69283  51.8689  91.9031 0006307 134.3241 225.8264 15.37189377  2758
KUIPER-00600            
1 69284U 26118T   26160.20376016  .00013074  00000+0  37010-3 0  9995
2 69284  51.8639  91.9287 0008948 142.6917 217.4693 15.36591532  2754
KUIPER-00601            
1 69285U 26118U   26160.26300776  .00017409  00000+0  47492-3 0  9993
2 69285  51.8703  91.5740 0004818 127.1239 233.0189 15.37523792  2763
KUIPER-00602            
1 69286U 26118V   26160.25971665  .00019058  00000+0  51144-3 0  9995
2 69286  51.8697  91.5530 0003233 117.7471 242.3844 15.37969941  2767
KUIPER-00603            
1 69287U 26118W   26160.26377191  .00019591  00000+0  53537-3 0  9991
2 69287  51.8667  91.5824 0005596 131.2399 228.9071 15.37381093  2763
KUIPER-00605            
1 69288U 26118X   26160.26698142  .00017862  00000+0  49619-3 0  9999
2 69288  51.8661  91.6026 0007667 136.6970 223.4620 15.36924550  2768
